OBJECT_NAME,OBJECT_ID,EPOCH,MEAN_MOTION,ECCENTRICITY,INCLINATION,RA_OF_ASC_NODE,ARG_OF_PERICENTER,MEAN_ANOMALY,EPHEMERIS_TYPE,CLASSIFICATION_TYPE,NORAD_CAT_ID,ELEMENT_SET_NO,REV_AT_EPOCH,BSTAR,MEAN_MOTION_DOT,MEAN_MOTION_DDOT
QZS-6 (MICHIBIKI-6),2025-023A,2026-07-15T18:55:58.867392,1.00266863,.00018396,0.0103,12.6020,119.3403,176.0977,0,U,62876,999,523,0,-.242E-5,0
ZHONGXING-10R,2025-036A,2026-07-16T14:12:19.792800,1.00271598,.0004231,0.0150,218.0129,289.0994,110.9082,0,U,63075,999,525,0,-.363E-5,0
TJS-15,2025-045A,2026-07-16T17:07:37.974144,1.00273452,.0003093,0.3110,85.6500,293.4061,266.7738,0,U,63157,999,505,0,-.276E-5,0
TIANLIAN 2-04,2025-062A,2026-07-16T18:20:18.140640,1.00271931,.0031543,4.3000,274.0142,9.2913,6.3789,0,U,63361,999,490,0,-.144E-5,0
TJS-16,2025-064A,2026-07-16T17:30:20.598048,1.00270998,.000247,1.1725,81.2742,292.6540,343.8270,0,U,63397,999,468,0,-.116E-5,0
TJS-17,2025-073A,2026-07-16T17:31:27.990048,1.00270918,.0000993,1.1385,82.4393,308.8491,330.6314,0,U,63524,999,458,0,-.81E-6,0
TIANLIAN 2-05,2025-084A,2026-07-16T15:52:31.545408,1.00272290,.00026096,4.3779,279.4995,155.3491,118.1320,0,U,63662,999,467,0,.115E-5,0
TJS-19,2025-097A,2026-07-16T18:31:01.322112,1.00275203,.000411,3.2376,317.9333,252.7576,142.8472,0,U,63924,999,444,0,-.284E-5,0
CHINASAT 3B,2025-106A,2026-07-16T17:32:20.407200,1.00271749,.0004037,0.0246,155.4685,350.4670,219.0178,0,U,64062,999,435,0,-.56E-6,0
SXM-10,2025-122A,2026-07-13T14:37:25.836384,1.00271903,.00018282,0.0157,36.2449,322.9748,35.4661,0,U,64290,999,394,0,-.21E-6,0
COSMOS 2589,2025-131A,2026-07-16T18:32:22.396416,1.00268602,.0000992,0.0255,115.2701,70.5039,124.9299,0,U,64467,999,385,0,-.301E-5,0
CHINASAT 9C,2025-132A,2026-07-16T13:33:38.738016,1.00266344,.00030454,0.0205,81.8756,32.5218,115.6019,0,U,64470,999,444,0,0,0
MTG-S1,2025-143A,2026-07-16T13:19:10.039584,1.00273920,.00034037,0.5837,345.4223,260.8337,247.5253,0,U,64723,999,371,0,-.18E-6,0
DROR 1,2025-148A,2026-07-16T13:18:10.135008,1.00272231,.00019923,0.0451,247.3014,150.4720,92.1528,0,U,64784,999,359,0,-.45E-6,0
SHIYAN-29,2025-196A,2026-07-15T16:49:46.684128,1.00276249,.0013258,28.8520,18.1755,177.9039,85.2184,0,U,65486,999,316,0,-.287E-5,0
NUSANTARA LIMA (NUSANTARA 5),2025-205A,2026-07-15T19:02:20.757120,1.00271718,.00004094,0.0085,120.1832,84.7645,127.1025,0,U,65588,999,300,0,-.368E-5,0
TJS-20,2025-238A,2026-07-16T14:51:38.581056,1.00275585,.00043365,5.4047,299.4390,182.7994,97.6015,0,U,66142,999,262,0,.16E-6,0
CMS-03 (GSAT-7R),2025-249B,2026-07-16T08:32:28.360320,1.00271441,.0001508,0.0129,340.6337,100.0789,55.5635,0,U,66311,999,264,0,-.87E-6,0
VIASAT-3 F2,2025-261A,2026-07-14T07:54:32.066784,1.00270448,.00007495,0.0014,307.9780,275.9845,107.8920,0,U,66454,999,306,0,-.24E-5,0
SHIJIAN-28 (SJ-28),2025-277A,2026-07-16T13:52:32.761344,1.00266329,.00011106,4.4635,271.6664,22.6385,325.0115,0,U,66549,999,244,0,-.369E-5,0
TJS-22,2025-290A,2026-07-12T19:22:52.255200,1.00269739,.0002691,1.4677,286.9097,318.9700,42.0235,0,U,66990,999,228,0,-.5E-7,0
TJS-23,2025-306A,2026-07-16T12:30:23.596416,1.00275812,.00050464,5.5227,297.3324,196.0419,164.1642,0,U,67226,999,218,0,.11E-6,0
FENGYUN 4C,2025-312A,2026-07-13T15:48:28.031328,1.00269440,.00006584,0.0385,175.3203,48.7481,77.5697,0,U,67246,999,204,0,-.328E-5,0
SHIJIAN-29A (SJ-29A),2025-315A,2026-07-16T18:35:04.057728,1.00272645,.0004925,3.4713,94.3977,51.7881,140.3462,0,U,67302,999,191,0,-.8E-6,0
SHIJIAN-29B (SJ-29B),2025-315C,2026-07-16T18:35:04.060320,1.00272922,.0005076,3.4703,94.3899,54.2045,137.9868,0,U,67403,999,198,0,-.8E-6,0
ELEKTRO-L 5,2026-028A,2026-07-15T23:20:21.789024,1.00271896,.00020749,0.2064,325.2168,175.9942,218.7841,0,U,67756,999,154,0,-.108E-5,0
JAM-E JAM 1,2026-028B,2026-07-16T13:29:01.593600,1.00274692,.00016383,0.2039,313.6530,319.7857,257.2486,0,U,67757,999,141,0,.145E-5,0
ECHOSTAR 25,2026-045A,2026-07-16T12:47:58.029792,1.00268441,.00017392,0.0234,66.5216,44.9433,264.9024,0,U,68126,999,128,0,0,0
TJS-24,2026-116A,2026-07-16T18:36:20.228832,1.00269482,.0000363,0.0815,94.5103,114.9138,94.5403,0,U,69235,999,52,0,-.241E-5,0
