QZS-6 (MICHIBIKI-6)     
1 62876U 25023A   26196.78887578 -.00000242  00000+0  00000+0 0  9990
2 62876   0.0103  12.6020 0001839 119.3403 176.0977  1.00266863  5237
ZHONGXING-10R           
1 63075U 25036A   26197.59189575 -.00000363  00000+0  00000+0 0  9992
2 63075   0.0150 218.0129 0004231 289.0994 110.9082  1.00271598  5259
TJS-15                  
1 63157U 25045A   26197.71363396 -.00000276  00000+0  00000+0 0  9995
2 63157   0.3110  85.6500 0003093 293.4061 266.7738  1.00273452  5056
TIANLIAN 2-04           
1 63361U 25062A   26197.76409885 -.00000144  00000+0  00000+0 0  9994
2 63361   4.3000 274.0142 0031543   9.2913   6.3789  1.00271931  4908
TJS-16                  
1 63397U 25064A   26197.72940507 -.00000116  00000+0  00000+0 0  9991
2 63397   1.1725  81.2742 0002470 292.6540 343.8270  1.00270998  4682
TJS-17                  
1 63524U 25073A   26197.73018507 -.00000081  00000+0  00000+0 0  9991
2 63524   1.1385  82.4393 0000993 308.8491 330.6314  1.00270918  4588
TIANLIAN 2-05           
1 63662U 25084A   26197.66147622  .00000115  00000+0  00000+0 0  9996
2 63662   4.3779 279.4995 0002609 155.3491 118.1320  1.00272290  4671
TJS-19                  
1 63924U 25097A   26197.77154308 -.00000284  00000+0  00000+0 0  9990
2 63924   3.2376 317.9333 0004110 252.7576 142.8472  1.00275203  4446
CHINASAT 3B             
1 64062U 25106A   26197.73079175 -.00000056  00000+0  00000+0 0  9996
2 64062   0.0246 155.4685 0004037 350.4670 219.0178  1.00271749  4356
SXM-10                  
1 64290U 25122A   26194.60932681 -.00000021  00000+0  00000+0 0  9992
2 64290   0.0157  36.2449 0001828 322.9748  35.4661  1.00271903  3942
COSMOS 2589             
1 64467U 25131A   26197.77248144 -.00000301  00000+0  00000+0 0  9994
2 64467   0.0255 115.2701 0000992  70.5039 124.9299  1.00268602  3859
CHINASAT 9C             
1 64470U 25132A   26197.56503169  .00000000  00000+0  00000+0 0  9992
2 64470   0.0205  81.8756 0003045  32.5218 115.6019  1.00266344  4449
MTG-S1                  
1 64723U 25143A   26197.55497731 -.00000018  00000+0  00000+0 0  9991
2 64723   0.5837 345.4223 0003403 260.8337 247.5253  1.00273920  3712
DROR 1                  
1 64784U 25148A   26197.55428397 -.00000045  00000+0  00000+0 0  9995
2 64784   0.0451 247.3014 0001992 150.4720  92.1528  1.00272231  3594
SHIYAN-29               
1 65486U 25196A   26196.70123477 -.00000287  00000+0  00000+0 0  9993
2 65486  28.8520  18.1755 0013258 177.9039  85.2184  1.00276249  3167
NUSANTARA LIMA (NUSANT*)
1 65588U 25205A   26196.79329580 -.00000368  00000+0  00000+0 0  9999
2 65588   0.0085 120.1832 0000409  84.7645 127.1025  1.00271718  3009
TJS-20                  
1 66142U 25238A   26197.61919654  .00000016  00000+0  00000+0 0  9990
2 66142   5.4047 299.4390 0004336 182.7994  97.6015  1.00275585  2624
CMS-03 (GSAT-7R)        
1 66311U 25249B   26197.35588380 -.00000087  00000+0  00000+0 0  9998
2 66311   0.0129 340.6337 0001508 100.0789  55.5635  1.00271441  2647
VIASAT-3 F2             
1 66454U 25261A   26195.32953781 -.00000240  00000+0  00000+0 0  9997
2 66454   0.0014 307.9780 0000749 275.9845 107.8920  1.00270448  3068
SHIJIAN-28 (SJ-28)      
1 66549U 25277A   26197.57815696 -.00000369  00000+0  00000+0 0  9992
2 66549   4.4635 271.6664 0001110  22.6385 325.0115  1.00266329  2441
TJS-22                  
1 66990U 25290A   26193.80754925 -.00000005  00000+0  00000+0 0  9993
2 66990   1.4677 286.9097 0002691 318.9700  42.0235  1.00269739  2289
TJS-23                  
1 67226U 25306A   26197.52110644  .00000011  00000+0  00000+0 0  9997
2 67226   5.5227 297.3324 0005046 196.0419 164.1642  1.00275812  2182
FENGYUN 4C              
1 67246U 25312A   26194.65865777 -.00000328  00000+0  00000+0 0  9993
2 67246   0.0385 175.3203 0000658  48.7481  77.5697  1.00269440  2048
SHIJIAN-29A (SJ-29A)    
1 67302U 25315A   26197.77435252 -.00000080  00000+0  00000+0 0  9991
2 67302   3.4713  94.3977 0004925  51.7881 140.3462  1.00272645  1915
SHIJIAN-29B (SJ-29B)    
1 67403U 25315C   26197.77435255 -.00000080  00000+0  00000+0 0  9996
2 67403   3.4703  94.3899 0005076  54.2045 137.9868  1.00272922  1984
ELEKTRO-L 5             
1 67756U 26028A   26196.97247441 -.00000108  00000+0  00000+0 0  9999
2 67756   0.2064 325.2168 0002074 175.9942 218.7841  1.00271896  1547
JAM-E JAM 1             
1 67757U 26028B   26197.56182400  .00000145  00000+0  00000+0 0  9999
2 67757   0.2039 313.6530 0001638 319.7857 257.2486  1.00274692  1418
ECHOSTAR 25             
1 68126U 26045A   26197.53331053  .00000000  00000+0  00000+0 0  9996
2 68126   0.0234  66.5216 0001739  44.9433 264.9024  1.00268441  1281
TJS-24                  
1 69235U 26116A   26197.77523413 -.00000241  00000+0  00000+0 0  9994
2 69235   0.0815  94.5103 0000363 114.9138  94.5403  1.00269482   526
